OBJECT_NAME,OBJECT_ID,EPOCH,MEAN_MOTION,ECCENTRICITY,INCLINATION,RA_OF_ASC_NODE,ARG_OF_PERICENTER,MEAN_ANOMALY,EPHEMERIS_TYPE,CLASSIFICATION_TYPE,NORAD_CAT_ID,ELEMENT_SET_NO,REV_AT_EPOCH,BSTAR,MEAN_MOTION_DOT,MEAN_MOTION_DDOT
STARLINK-11264 [DTC],2024-154D,2026-06-18T16:28:22.774944,15.69706749,.0000861,53.1590,353.6373,78.1566,281.9549,0,U,60906,999,10437,.11471E-5,-.449E-5,0
STARLINK-11226 [DTC],2024-154E,2026-06-18T17:52:59.824704,15.69701266,.0000997,53.1579,353.2909,129.9499,230.1606,0,U,60907,999,10438,.15415E-4,.1279E-4,0
STARLINK-11229 [DTC],2024-154F,2026-06-18T19:17:36.182400,15.69715944,.0000961,53.1589,352.9484,85.9427,274.1701,0,U,60908,999,10439,.19162E-4,.1734E-4,0
STARLINK-11265 [DTC],2024-154G,2026-06-18T18:14:11.961024,15.69698703,.0000817,53.1595,353.3867,107.0639,253.0468,0,U,60909,999,10438,-.61925E-5,-.1338E-4,0
STARLINK-11250 [DTC],2024-154H,2026-06-18T17:38:51.870912,15.69721426,.0001184,53.1606,353.2250,79.2874,280.8277,0,U,60910,999,10438,-.22618E-4,-.3329E-4,0
STARLINK-11190 [DTC],2024-154J,2026-06-18T19:03:29.250720,15.69708861,.0001204,53.1604,352.8768,64.1642,295.9500,0,U,60911,999,10438,.60616E-5,.146E-5,0
STARLINK-11225 [DTC],2024-154K,2026-06-18T18:56:25.609056,15.69705518,.0000917,53.1594,352.8468,88.8367,271.2756,0,U,60912,999,10438,.11485E-4,.803E-5,0
STARLINK-11273 [DTC],2024-154L,2026-06-18T18:49:22.077120,15.69700504,.0000667,53.1595,352.8125,60.8809,299.2276,0,U,60913,999,10438,-.15515E-5,-.776E-5,0
STARLINK-11271 [DTC],2024-154N,2026-06-18T18:35:14.628768,15.69696600,.0000786,53.1587,352.7464,96.4871,263.6236,0,U,60915,999,10438,-.72099E-5,-.1461E-4,0
STARLINK-32371,2024-154P,2026-06-18T07:26:14.896896,15.31708266,.0001166,53.1601,176.2400,88.7597,271.3538,0,U,60916,999,10174,.37908E-4,.812E-5,0
STARLINK-32369,2024-154Q,2026-06-18T10:27:27.311328,15.31716789,.0000977,53.1588,175.6032,74.9920,285.1190,0,U,60917,999,10176,.31924E-4,.626E-5,0
STARLINK-32317,2024-154R,2026-06-18T17:58:03.708192,15.30194540,.0001161,53.1593,174.7120,73.9434,286.1695,0,U,60918,999,10180,.10601E-4,-.45E-6,0
STARLINK-32367,2024-154S,2026-06-18T11:55:21.716832,15.30196847,.0001166,53.1594,175.2694,70.1653,289.9473,0,U,60919,999,10177,.18007E-4,.174E-5,0
STARLINK-32345,2024-154T,2026-06-18T08:35:15.716256,15.30193361,.0001144,53.1600,176.5375,74.2553,285.8574,0,U,60920,999,10175,.26365E-4,.422E-5,0
STARLINK-32356,2024-154U,2026-06-18T07:12:48.250080,15.31709067,.00012,53.1601,176.1795,99.8615,260.2522,0,U,60921,999,10175,.60901E-4,.1526E-4,0
STARLINK-32274,2024-154V,2026-06-18T09:41:59.074944,15.30190513,.0001302,53.1594,176.1159,79.5393,280.5754,0,U,60922,999,10176,.64198E-4,.1542E-4,0
STARLINK-32373,2024-154W,2026-06-18T17:45:54.442080,15.30190229,.0001378,53.1598,174.6541,91.8000,268.3158,0,U,60923,999,10181,-.75126E-5,-.582E-5,0
STARLINK-11239 [DTC],2024-155A,2026-06-18T10:53:23.880768,15.69733566,.0001114,53.1576,204.8839,78.7695,281.3448,0,U,60924,999,10422,.75579E-4,.8586E-4,0
STARLINK-11245 [DTC],2024-155B,2026-06-18T19:42:18.637920,15.69707179,.0000913,53.1593,202.8996,90.1312,269.9811,0,U,60925,999,10428,.16044E-5,-.394E-5,0
STARLINK-11244 [DTC],2024-155C,2026-06-18T19:28:11.053056,15.69705272,.0000918,53.1596,202.8349,87.0014,273.1109,0,U,60926,999,10433,-.53318E-5,-.1234E-4,0
STARLINK-11243 [DTC],2024-155D,2026-06-18T19:35:14.942688,15.69706383,.0000966,53.1587,202.8710,72.5576,287.5547,0,U,60927,999,10428,.27281E-5,-.258E-5,0
STARLINK-11238 [DTC],2024-155E,2026-06-18T11:42:42.107904,15.69706108,.0000985,53.1588,204.3730,82.9060,277.2070,0,U,60928,999,10428,-.53082E-5,-.1231E-4,0
STARLINK-11240 [DTC],2024-155F,2026-06-18T11:35:38.059296,15.69707893,.0000925,53.1587,204.3397,103.1495,256.9626,0,U,60929,999,10423,.14704E-5,-.41E-5,0
STARLINK-11251 [DTC],2024-155G,2026-06-18T19:06:59.387616,15.69707380,.0000891,53.1594,202.7382,94.0604,266.0516,0,U,60930,999,10428,-.61553E-6,-.663E-5,0
STARLINK-11204 [DTC],2024-155H,2026-06-18T18:59:55.768416,15.69706950,.0001049,53.1594,202.7046,85.2361,274.8776,0,U,60931,999,10428,.86016E-5,.454E-5,0
STARLINK-11246 [DTC],2024-155J,2026-06-18T02:04:20.251200,15.69711021,.00010527,53.1592,206.1241,93.2469,266.8670,0,U,60932,999,10417,-.127091E-6,-.604E-5,0
STARLINK-11207 [DTC],2024-155K,2026-06-18T06:32:19.203072,15.69711484,.0000876,53.1601,205.1488,77.0833,283.0282,0,U,60933,999,10420,.84852E-5,.44E-5,0
STARLINK-11237 [DTC],2024-155L,2026-06-18T09:28:38.015616,15.69709562,.0001047,53.1595,204.4888,64.5727,295.5399,0,U,60934,999,10423,.46898E-5,-.2E-6,0
STARLINK-11253 [DTC],2024-155M,2026-06-18T06:11:17.476224,15.69699228,.0000754,53.1604,205.7870,58.0110,302.0981,0,U,60935,999,10419,-.34071E-5,-.1E-4,0
STARLINK-11241 [DTC],2024-155N,2026-06-18T19:49:22.404864,15.69706602,.0000972,53.1595,202.9274,88.4046,271.7083,0,U,60936,999,10428,.228E-5,-.312E-5,0
STARLINK-32259,2024-155P,2026-06-18T20:00:01.999008,15.34411319,.0000908,53.1592,19.9230,64.2374,8.3916,0,U,60937,999,589,-.37675E-3,-.13088E-3,0
STARLINK-32262,2024-155Q,2026-06-18T20:00:01.999008,15.88354757,.0002299,53.1370,331.7795,333.5933,273.9381,0,U,60938,999,589,.93771E-3,.272441E-2,0
STARLINK-32258,2024-155R,2026-06-18T18:10:13.221408,15.34395159,.0001786,53.1598,19.5920,88.5771,271.5436,0,U,60939,999,10177,.92968E-4,.2765E-4,0
STARLINK-32251,2024-155S,2026-06-18T18:43:32.825856,15.34410737,.0001328,53.1621,19.7322,90.1169,269.9985,0,U,60940,999,10182,-.15782E-3,-.5707E-4,0
STARLINK-32224,2024-155T,2026-06-18T20:35:31.282080,15.34391017,.0001344,53.1630,19.5081,88.0751,272.0406,0,U,60941,999,10184,.20718E-4,.324E-5,0
STARLINK-32184,2024-155U,2026-06-18T18:16:15.964896,15.34377236,.0001113,53.1599,19.6214,92.9046,267.2083,0,U,60942,999,10177,.81509E-4,.2377E-4,0
STARLINK-32288,2024-155V,2026-06-18T18:19:18.625728,15.34389296,.0001331,53.1612,19.6292,82.9263,277.1891,0,U,60943,999,10177,.12049E-4,.31E-6,0
STARLINK-32276,2024-155W,2026-06-18T20:56:44.608128,15.34394371,.0000997,53.1623,19.5996,106.8407,253.2705,0,U,60944,999,10188,-.73369E-4,-.2854E-4,0
YAOGAN-43 02A,2024-156A,2026-06-18T14:38:25.853280,15.49749907,.0004729,34.9944,143.4193,262.4938,97.5247,0,U,60945,999,10018,.58405E-3,.3357E-3,0
YAOGAN-43 02B,2024-156B,2026-06-18T18:07:50.397024,15.22867426,.0002912,34.9928,188.1534,121.4027,238.6972,0,U,60946,999,9968,.21964E-3,.5238E-4,0
YAOGAN-43 02C,2024-156C,2026-06-18T18:02:09.391776,15.23021010,.0002455,34.9962,188.2931,21.9620,338.1199,0,U,60947,999,9968,.19066E-3,.4562E-4,0
YAOGAN-43 02D,2024-156D,2026-06-18T11:54:10.784160,15.22899248,.0003356,34.9904,189.7202,273.3726,86.6604,0,U,60948,999,9964,.21508E-3,.5133E-4,0
YAOGAN-43 02E,2024-156E,2026-06-18T18:17:29.067936,15.23070422,.0002729,34.9948,188.2726,358.6343,1.4364,0,U,60949,999,9968,.26796E-3,.6437E-4,0
YAOGAN-43 02F,2024-156F,2026-06-18T18:03:19.045728,15.22881698,.0000977,34.9910,188.0332,301.0868,58.9751,0,U,60950,999,9968,.21395E-3,.5103E-4,0
SENTINEL-2C,2024-157A,2026-06-18T18:44:32.937792,14.30818212,.0001001,98.5692,244.5404,82.7227,277.4070,0,U,60989,999,9321,.47533E-4,.81E-6,0
STARLINK-11289 [DTC],2024-158B,2026-06-18T04:46:33.148128,15.69707610,.0001009,53.1593,145.5801,81.9676,278.1456,0,U,60991,999,10338,.25846E-5,-.275E-5,0
STARLINK-11282 [DTC],2024-158C,2026-06-18T05:07:44.522400,15.69710141,.0001291,53.1601,145.6782,98.7011,261.4153,0,U,60992,999,10338,.52821E-5,.51E-6,0
STARLINK-11283 [DTC],2024-158D,2026-06-18T07:28:52.567392,15.69712490,.0001183,53.1587,145.5889,87.3712,272.7441,0,U,60993,999,10339,-.1236E-4,-.2086E-4,0
STARLINK-11267 [DTC],2024-158E,2026-06-18T05:50:07.734048,15.69709075,.0001228,53.1596,145.8730,98.1754,261.9403,0,U,60994,999,10338,-.45061E-5,-.1135E-4,0
STARLINK-11269 [DTC],2024-158F,2026-06-18T08:46:25.609152,15.69710194,.0000939,53.1588,145.2085,85.9062,274.2063,0,U,60995,999,10339,.1581E-5,-.397E-5,0
STARLINK-11281 [DTC],2024-158G,2026-06-18T04:04:19.026624,15.69708446,.0001148,53.1604,146.1200,89.1371,270.9779,0,U,60996,999,10336,.11084E-5,-.454E-5,0
STARLINK-11260 [DTC],2024-158H,2026-06-18T07:03:00.552096,15.69871234,.000102,53.1598,123.1552,76.4593,283.6538,0,U,60997,999,10375,.96874E-4,.11241E-3,0
STARLINK-11287 [DTC],2024-158J,2026-06-18T08:32:18.247200,15.69705278,.0001145,53.1597,145.1437,93.0583,267.0565,0,U,60998,999,10339,.72471E-5,.289E-5,0
STARLINK-11270 [DTC],2024-158K,2026-06-18T05:21:52.135776,15.69740697,.0001233,53.1578,145.7400,94.6073,265.5086,0,U,60999,999,10337,.80436E-3,.98143E-3,0
STARLINK-11290 [DTC],2024-158L,2026-06-18T05:14:48.591744,15.69702836,.0001248,53.1589,145.7054,87.4871,272.6289,0,U,61000,999,10344,.29673E-5,-.229E-5,0
STARLINK-11274 [DTC],2024-158M,2026-06-18T15:42:27.834048,15.69707356,.0001188,53.1599,143.4414,93.7057,266.4096,0,U,61001,999,10344,.4858E-6,-.53E-5,0
STARLINK-11288 [DTC],2024-158N,2026-06-18T15:35:24.161280,15.69707306,.0001443,53.1615,143.4136,90.6975,269.4208,0,U,61002,999,10344,.19891E-5,-.348E-5,0
STARLINK-32279,2024-158P,2026-06-18T16:53:54.735936,15.34391802,.0001083,53.1615,315.8611,85.8633,274.2493,0,U,61003,999,10112,.10492E-4,-.22E-6,0
STARLINK-32336,2024-158Q,2026-06-18T17:03:00.237024,15.34389659,.0001523,53.1616,315.9037,50.2693,309.8444,0,U,61004,999,10112,.23787E-4,.427E-5,0
STARLINK-32284,2024-158R,2026-06-18T15:17:04.947648,15.34400269,.0001399,53.1635,316.1559,90.8379,269.2784,0,U,61005,999,10104,-.41495E-4,-.1778E-4,0
STARLINK-32282,2024-158S,2026-06-18T18:54:57.557952,15.34419481,.0001315,53.1606,315.6739,80.1021,280.0130,0,U,61006,999,10113,.35594E-3,.11676E-3,0
STARLINK-32360,2024-158T,2026-06-18T15:39:37.725408,15.34395326,.0001014,53.1611,300.2503,94.4428,265.6690,0,U,61007,999,10126,.41179E-4,.1015E-4,0
STARLINK-32340,2024-158U,2026-06-18T18:33:44.988768,15.34392529,.0001147,53.1614,315.5097,90.2983,269.8151,0,U,61008,999,10106,.13846E-4,.92E-6,0
STARLINK-32347,2024-158W,2026-06-18T17:12:05.124672,15.34393620,.0001099,53.1626,315.9373,62.7809,297.3305,0,U,61010,999,10105,.183E-4,.242E-5,0
